OBJECT_NAME,OBJECT_ID,EPOCH,MEAN_MOTION,ECCENTRICITY,INCLINATION,RA_OF_ASC_NODE,ARG_OF_PERICENTER,MEAN_ANOMALY,EPHEMERIS_TYPE,CLASSIFICATION_TYPE,NORAD_CAT_ID,ELEMENT_SET_NO,REV_AT_EPOCH,BSTAR,MEAN_MOTION_DOT,MEAN_MOTION_DDOT
SUOMI NPP,2011-061A,2026-06-04T22:26:22.775712,14.19514779,.00021767,98.7951,96.8950,33.1193,327.0119,0,U,37849,999,75670,.69365016E-4,.102E-5,0
YAOGAN-12,2011-066B,2026-06-04T22:36:50.102784,15.26439894,.00079805,97.1147,195.0867,269.2698,90.7627,0,U,37875,999,81017,.29077616E-3,.7515E-4,0
BEIDOU-2 M4,2012-018B,2026-06-04T05:36:54.798048,1.86229800,.00110841,55.6701,304.5261,278.0259,81.8322,0,U,38251,999,9570,0,-.59E-6,0
ARIRANG-3 (KOMPSAT-3),2012-025B,2026-06-04T23:43:59.269152,14.62195294,.00060925,98.1171,113.6599,141.0373,219.1269,0,U,38338,999,74956,.11530824E-3,.534E-5,0
METOP-B,2012-049A,2026-06-04T22:35:47.430816,14.21429368,.00028965,98.6509,207.6845,47.3983,312.7438,0,U,38771,999,71152,.80184725E-4,.132E-5,0
SJ-9A,2012-056A,2026-06-04T21:42:59.818464,14.85448839,.00241826,97.6702,128.3015,299.8033,60.0778,0,U,38860,999,69776,.14926234E-3,.124E-4,0
COSMOS 2484 (RODNIK-S 6),2013-001C,2026-06-04T21:51:55.106208,12.42938638,.00272898,82.5024,229.5240,62.6942,297.6912,0,U,39059,999,60703,.18927982E-3,.36E-6,0
SARAL,2013-009A,2026-06-04T21:22:07.207680,14.32852909,.00014104,98.5558,342.6136,2.5451,357.5740,0,U,39086,999,69384,.4636973E-4,.83E-6,0
STRAND-1,2013-009E,2026-06-04T00:52:51.152160,14.37155097,.00073872,98.3918,335.5952,270.6143,89.4198,0,U,39090,999,69517,.11291857E-3,.293E-5,0
BRITE-AUSTRIA,2013-009F,2026-06-04T17:46:13.291104,14.36537037,.00089688,98.3992,335.4846,278.5862,81.4309,0,U,39091,999,69526,.84089819E-4,.204E-5,0
GAOFEN-1,2013-018A,2026-06-04T22:22:59.782368,14.76521379,.00160813,97.9095,228.2488,309.6328,50.3463,0,U,39150,999,70643,-.23127244E-4,-.213E-5,0
NEE-01 PEGASO,2013-018B,2026-06-03T11:09:53.669664,14.93586684,.00121772,98.1207,298.1637,203.9081,156.1574,0,U,39151,999,70865,.30779545E-3,.319E-4,0
PROBA-V,2013-021A,2026-06-04T11:13:45.340896,14.23594218,.00045463,98.3578,134.7029,154.6484,205.4920,0,U,39159,999,67930,.56508428E-4,.88E-6,0
ARIRANG-5 (KOMPSAT-5),2013-042A,2026-06-04T22:17:01.093632,15.04545315,.00037546,97.6201,342.8007,155.3717,204.7689,0,U,39227,999,70201,.19278647E-3,.2642E-4,0
GONETS-M 5,2013-048A,2026-06-04T23:02:14.507232,12.42891659,.00156947,82.4829,351.0070,238.6846,121.2698,0,U,39249,999,57736,.33415434E-3,.56E-6,0
GONETS-M 7,2013-048C,2026-06-04T22:09:13.363776,12.42914400,.00164853,82.4897,353.9458,240.1189,119.8253,0,U,39251,999,57731,.22149786E-3,.4E-6,0
FENGYUN 3C,2013-052A,2026-06-04T23:00:25.917120,14.15752193,.00157547,98.4980,130.3955,60.7894,299.4854,0,U,39260,999,65683,.79872864E-4,.116E-5,0
CASSIOPE,2013-055A,2026-06-04T21:20:37.760352,15.24079432,.02968718,80.9143,81.6408,103.6552,259.7922,0,U,39265,999,66579,.43883188E-3,.39655E-3,-.609145E-6
APRIZESAT 7,2013-066A,2026-06-03T11:14:31.928640,14.91532678,.00342772,97.7702,107.8862,256.3956,103.3444,0,U,39416,999,67918,.14142157E-3,.1374E-4,0
ZACUBE-1 (TSHEPISOSAT),2013-066B,2026-06-03T22:37:15.794688,15.01095965,.00399036,97.8107,117.2078,294.5657,65.1411,0,U,39417,999,67874,.35148087E-3,.451E-4,0
APRIZESAT 8,2013-066K,2026-06-04T02:13:28.245792,14.87624717,.0045204,97.8216,102.7439,330.7670,29.1018,0,U,39425,999,67772,.14319275E-3,.1269E-4,0
